[{"OBJECT_NAME":"NOAA 18","OBJECT_ID":"2005-018A","EPOCH":"2026-03-13T22:19:01.206912","MEAN_MOTION":14.13711689,"ECCENTRICITY":0.00151873,"INCLINATION":98.815,"RA_OF_ASC_NODE":153.9777,"ARG_OF_PERICENTER":64.2545,"MEAN_ANOMALY":296.0193,"EPHEMERIS_TYPE":0,"CLASSIFICATION_TYPE":"U","NORAD_CAT_ID":28654,"ELEMENT_SET_NO":999,"REV_AT_EPOCH":7285,"BSTAR":4.5511171e-5,"MEAN_MOTION_DOT":4.2e-7,"MEAN_MOTION_DDOT":0},{"OBJECT_NAME":"NOAA 19","OBJECT_ID":"2009-005A","EPOCH":"2026-03-13T21:53:00.551616","MEAN_MOTION":14.13457639,"ECCENTRICITY":0.0012756,"INCLINATION":98.9599,"RA_OF_ASC_NODE":143.6899,"ARG_OF_PERICENTER":301.8737,"MEAN_ANOMALY":58.1194,"EPHEMERIS_TYPE":0,"CLASSIFICATION_TYPE":"U","NORAD_CAT_ID":33591,"ELEMENT_SET_NO":999,"REV_AT_EPOCH":88102,"BSTAR":4.8908806e-5,"MEAN_MOTION_DOT":4.7e-7,"MEAN_MOTION_DDOT":0},{"OBJECT_NAME":"SUOMI NPP","OBJECT_ID":"2011-061A","EPOCH":"2026-03-13T21:38:38.685696","MEAN_MOTION":14.19544897,"ECCENTRICITY":6.581e-5,"INCLINATION":98.7874,"RA_OF_ASC_NODE":14.4711,"ARG_OF_PERICENTER":200.5681,"MEAN_ANOMALY":159.5469,"EPHEMERIS_TYPE":0,"CLASSIFICATION_TYPE":"U","NORAD_CAT_ID":37849,"ELEMENT_SET_NO":999,"REV_AT_EPOCH":74492,"BSTAR":6.519731e-5,"MEAN_MOTION_DOT":9.3e-7,"MEAN_MOTION_DDOT":0},{"OBJECT_NAME":"NOAA 20 (JPSS-1)","OBJECT_ID":"2017-073A","EPOCH":"2026-03-13T21:59:48.533280","MEAN_MOTION":14.19537291,"ECCENTRICITY":0.00013868,"INCLINATION":98.7695,"RA_OF_ASC_NODE":13.2616,"ARG_OF_PERICENTER":132.2002,"MEAN_ANOMALY":227.9292,"EPHEMERIS_TYPE":0,"CLASSIFICATION_TYPE":"U","NORAD_CAT_ID":43013,"ELEMENT_SET_NO":999,"REV_AT_EPOCH":43095,"BSTAR":5.9089077e-5,"MEAN_MOTION_DOT":8.0e-7,"MEAN_MOTION_DDOT":0}]
