NOAA 18                 
1 28654U 05018A   26072.92987508  .00000042  00000+0  45511-4 0  9999
2 28654  98.8150 153.9777 0015187  64.2545 296.0193 14.13711689 72858
NOAA 19                 
1 33591U 09005A   26072.91181194  .00000047  00000+0  48909-4 0  9990
2 33591  98.9599 143.6899 0012756 301.8737  58.1194 14.13457639881022
SUOMI NPP               
1 37849U 11061A   26072.90183664  .00000093  00000+0  65197-4 0  9997
2 37849  98.7874  14.4711 0000658 200.5681 159.5469 14.19544897744922
NOAA 20 (JPSS-1)        
1 43013U 17073A   26072.91653395  .00000080  00000+0  59089-4 0  9999
2 43013  98.7695  13.2616 0001386 132.2002 227.9292 14.19537291430950
